PROBA-1                 
1 26958U 01049B   25066.40990314  .00003258  00000+0  23006-3 0  9994
2 26958  97.9438  55.0309 0056294 258.0928 101.3982 15.04421827273420
CUTE-1 (CO-55)          
1 27844U 03031E   25065.74857867  .00000622  00000+0  29070-3 0  9992
2 27844  98.6795  75.2383 0010860 101.8870 258.3527 14.23855936125140
CUBESAT XI-IV (CO-57)   
1 27848U 03031J   25065.72350768  .00000532  00000+0  25446-3 0  9995
2 27848  98.6824  75.2898 0010642 117.0640 243.1626 14.23211097124875
GENESIS 1               
1 29252U 06029A   25066.19779834  .00077020  00000+0  71693-3 0  9998
2 29252  64.5059 342.9808 0031015 294.8160  64.9761 15.66309775 31416
GENESIS 2               
1 31789U 07028A   25066.15398424  .00061040  00000+0  72947-3 0  9992
2 31789  64.4816  31.9562 0014861 319.6131  40.3908 15.60518268978155
APRIZESAT 4             
1 35684U 09041D   25065.72115050  .00001376  00000+0  17477-3 0  9994
2 35684  98.1981 125.5681 0044970  37.1183 323.3124 14.82711267842066
APRIZESAT 3             
1 35686U 09041F   25066.30363213  .00004734  00000+0  43388-3 0  9998
2 35686  98.1381 194.8766 0065118 166.4855 193.8127 14.93805351846667
PROBA-2                 
1 36037U 09059B   25066.12318930  .00000475  00000+0  12212-3 0  9994
2 36037  98.2357 251.2952 0012076 284.2764  75.7092 14.54447163813719
APRIZESAT 5             
1 37792U 11044E   25066.35898179  .00002087  00000+0  27951-3 0  9990
2 37792  98.2328 342.3306 0055204  65.5070 295.1883 14.79524033729868
APRIZESAT 6             
1 37793U 11044F   25065.71495738  .00001327  00000+0  19882-3 0  9994
2 37793  98.2715 321.2759 0044889 138.7656 285.3211 14.75754511728178
PROBA-V                 
1 39159U 13021A   25066.47636202  .00000177  00000+0  95916-4 0  9991
2 39159  98.3182  64.4385 0005326  67.0735 293.1006 14.23444452614717
APRIZESAT 7             
1 39416U 13066A   25066.49889397  .00003277  00000+0  34514-3 0  9993
2 39416  97.7093  23.9390 0036073 320.0013  39.8549 14.89578019611732
APRIZESAT 8             
1 39425U 13066K   25065.71175814  .00002504  00000+0  28691-3 0  9990
2 39425  97.7650  16.9693 0048248  25.5612 334.7974 14.85986735610202
BUGSAT-1 (TITA)         
1 40014U 14033E   25065.73094239  .00006522  00000+0  40875-3 0  9996
2 40014  98.0863 127.1398 0031232 331.5996  28.3527 15.09322946585177
SAUDISAT 4              
1 40016U 14033G   25065.70681649  .00001805  00000+0  25008-3 0  9992
2 40016  97.6928 225.2124 0046374 153.5603 206.7989 14.78425619576971
APRIZESAT 9             
1 40018U 14033J   25066.36109450  .00001521  00000+0  23585-3 0  9995
2 40018  97.8367 208.1811 0066221 261.1302  98.2404 14.73145080574936
APRIZESAT 10            
1 40019U 14033K   25066.32980112  .00001048  00000+0  17508-3 0  9996
2 40019  97.8999 200.7395 0079334 325.4977  34.1094 14.69946785573821
TECHDEMOSAT-1 (TDS-1)   
1 40076U 14037H   25066.42197735  .00010838  00000+0  80853-3 0  9995
2 40076  98.3341  12.6177 0009928  47.3534 312.8524 15.03024611577945
TECHNOSAT               
1 42829U 17042E   25066.46568538  .00005228  00000+0  41754-3 0  9993
2 42829  97.3900 239.7072 0012088 240.9777 119.0237 15.00607453416601
FLYING LAPTOP           
1 42831U 17042G   25066.49618051  .00004527  00000+0  38771-3 0  9991
2 42831  97.3980 238.8803 0010307 268.7600  91.2443 14.97989581416519
HAWK-A                  
1 43765U 18099H   25065.64227985  .00006805  00000+0  43443-3 0  9992
2 43765  97.4588 121.0094 0012488 102.0989 258.1640 15.08922725342137
HAWK-B                  
1 43794U 18099AN  25066.18011337  .00005920  00000+0  38291-3 0  9998
2 43794  97.4584 121.5148 0012313 101.7204 258.5407 15.08493900342204
HAWK-C                  
1 43799U 18099AT  25065.64362697  .00006768  00000+0  43363-3 0  9998
2 43799  97.4587 120.9047 0012393 101.6259 258.6362 15.08790984342876
SALSAT                  
1 46495U 20068K   25065.66774819  .00011470  00000+0  52784-3 0  9991
2 46495  97.8521  39.5087 0013917 125.0372 235.2170 15.20416469244092
HAWK-2C                 
1 47502U 21006CT  25065.76171673  .00008767  00000+0  33629-3 0  9996
2 47502  97.2942 115.0710 0009542  75.6475 284.5823 15.26678133227995
HAWK-2A                 
1 47505U 21006CW  25065.76192592  .00007263  00000+0  27940-3 0  9991
2 47505  97.2991 115.4768 0009142  77.2658 282.9602 15.26648490227996
HAWK-2B                 
1 47508U 21006CZ  25065.76210139  .00008839  00000+0  33893-3 0  9996
2 47508  97.2858 114.6029 0009852  77.4718 282.7623 15.26685821227999
HAWK-3B                 
1 48931U 21059BE  25065.42008550  .00020595  00000+0  50398-3 0  9992
2 48931  97.6545 224.9628 0009058 229.2006 130.8454 15.40774405205244
HAWK-3C                 
1 48948U 21059BX  25066.39401519  .00022794  00000+0  55665-3 0  9994
2 48948  97.6789 230.4604 0009727 229.4856 130.5542 15.40809814205390
HAWK-3A                 
1 48957U 21059CG  25066.39384687  .00023091  00000+0  56379-3 0  9994
2 48957  97.6669 228.2331 0009813 222.9538 137.0942 15.40810942205390
HAWK-4B                 
1 52165U 22033J   25065.71875520  .00060021  00000+0  66925-3 0  9991
2 52165  97.2979 158.0505 0003716  69.5442 290.6215 15.62623348163954
HAWK-4A                 
1 52167U 22033L   25065.71832102  .00060177  00000+0  67074-3 0  9990
2 52167  97.2917 157.3234 0003420  73.7064 286.4571 15.62633438163957
HAWK-4C                 
1 52170U 22033P   25065.71825062  .00061873  00000+0  68934-3 0  9991
2 52170  97.2975 158.0187 0004387  53.2442 306.9218 15.62633794163957
HAWK-5C                 
1 52754U 22057Y   25066.34866362  .00014922  00000+0  46377-3 0  9993
2 52754  97.6007 199.5357 0006008 307.4496  52.6199 15.33429720154402
HAWK-5B                 
1 52756U 22057AA  25066.34852088  .00015120  00000+0  46978-3 0  9993
2 52756  97.5994 197.9564 0006550 301.6818  58.3785 15.33433546154401
HAWK-5A                 
1 52757U 22057AB  25066.34829307  .00015007  00000+0  46632-3 0  9993
2 52757  97.6003 198.7421 0006848 303.5816  56.4771 15.33429574154404
HAWK-6B                 
1 55324U 23011A   25066.41506596  .00007039  00000+0  36180-3 0  9990
2 55324  40.5141 181.6758 0000388 285.1272  74.9492 15.16629823116802
HAWK-6C                 
1 55326U 23011C   25066.34869004  .00007132  00000+0  36642-3 0  9997
2 55326  40.4827 179.9190 0001187 231.0107 129.0594 15.16632412116802
HAWK-6A                 
1 55327U 23011D   25065.62433466  .00007549  00000+0  38747-3 0  9997
2 55327  40.4992 185.2058 0000864 188.3581 171.7211 15.16615743116695
HAWK-7A                 
1 56191U 23054P   25065.66312767  .00009580  00000+0  38131-3 0  9992
2 56191  97.3400 317.5673 0005755 306.9587  53.1124 15.25448218105641
HAWK-7B                 
1 56193U 23054R   25066.45023481  .00012616  00000+0  50065-3 0  9998
2 56193  97.3300 316.7215 0006718 315.9937  44.0766 15.25471056105764
HAWK-7C                 
1 56200U 23054Y   25066.12210375  .00008340  00000+0  33228-3 0  9992
2 56200  97.3305 317.2071 0005974 317.2410  42.8363 15.25455948105714
